OBJECT_NAME,OBJECT_ID,EPOCH,MEAN_MOTION,ECCENTRICITY,INCLINATION,RA_OF_ASC_NODE,ARG_OF_PERICENTER,MEAN_ANOMALY,EPHEMERIS_TYPE,CLASSIFICATION_TYPE,NORAD_CAT_ID,ELEMENT_SET_NO,REV_AT_EPOCH,BSTAR,MEAN_MOTION_DOT,MEAN_MOTION_DDOT
ONEWEB-0369,2021-090S,2026-07-16T19:49:55.153056,13.19726384,.0002046,87.9185,299.0714,104.7746,255.3613,0,U,49295,999,23032,-.17636E-3,-.58E-6,0
ONEWEB-0370,2021-090T,2026-07-17T04:07:50.276352,13.20772270,.0002305,87.9184,268.4654,93.8862,266.2535,0,U,49296,999,23382,-.15004E-4,.7E-7,0
ONEWEB-0371,2021-090U,2026-07-17T05:07:10.314048,13.19725862,.0002107,87.9193,298.9891,101.7985,258.3384,0,U,49297,999,23041,.21037E-3,.97E-6,0
ONEWEB-0372,2021-090V,2026-07-17T03:53:04.932960,13.20769998,.0002114,87.9183,268.4697,98.9643,261.1729,0,U,49298,999,23379,.10838E-3,.57E-6,0
ONEWEB-0373,2021-090W,2026-07-16T17:35:05.896032,13.20772869,.000208,87.9185,268.5544,96.0097,264.1274,0,U,49299,999,23492,-.21712E-3,-.75E-6,0
ONEWEB-0374,2021-090X,2026-07-17T04:26:45.600000,13.14503274,.0001538,87.8970,283.7218,88.3682,271.7624,0,U,49300,999,23150,-.3901E-3,-.132E-5,0
ONEWEB-0375,2021-090Y,2026-07-16T17:18:07.983936,13.20772791,.0001634,87.9187,268.5488,87.1363,272.9958,0,U,49301,999,23442,-.15744E-3,-.51E-6,0
ONEWEB-0376,2021-090Z,2026-07-17T05:04:52.963968,13.19727249,.0002114,87.9193,298.9893,106.2270,253.9095,0,U,49302,999,23041,.17783E-3,.84E-6,0
ONEWEB-0377,2021-090AA,2026-07-16T16:58:53.929632,13.20792686,.0002062,87.9183,268.5539,93.1783,266.9586,0,U,49303,999,23441,.57527E-2,.2353E-4,0
ONEWEB-0378,2021-090AB,2026-07-17T04:22:35.365728,13.20772072,.000191,87.9180,268.4626,97.7553,262.3797,0,U,49304,999,23374,.51333E-5,.15E-6,0
ONEWEB-0379,2021-090AC,2026-07-17T04:19:55.205184,13.14502660,.0001913,87.8968,283.7326,98.3280,261.8067,0,U,49305,999,23150,-.30084E-3,-.99E-6,0
ONEWEB-0380,2021-090AD,2026-07-16T19:54:28.182240,13.19726611,.0001984,87.9186,299.0688,95.1079,265.0280,0,U,49306,999,23033,-.1E-3,-.27E-6,0
ONEWEB-0381,2021-090AE,2026-07-16T16:53:52.708128,13.20770195,.0001838,87.9184,268.5590,93.9457,266.1886,0,U,49307,999,23372,-.60152E-4,-.11E-6,0
ONEWEB-0382,2021-090AF,2026-07-17T03:29:03.336000,13.20772156,.0001799,87.9184,268.4650,97.0834,263.0504,0,U,49308,999,23377,.18849E-3,.9E-6,0
ONEWEB-0383,2021-090AG,2026-07-17T04:10:47.163072,13.14503054,.0001885,87.8974,283.7260,102.1366,257.9975,0,U,49309,999,23153,.35537E-5,.14E-6,0
ONEWEB-0384,2021-090AH,2026-07-17T03:11:19.702752,13.20814920,.0001614,87.9185,268.5115,100.2252,259.9064,0,U,49310,999,23378,.25934E-3,.118E-5,0
ONEWEB-0385,2021-090AJ,2026-07-17T03:19:20.606016,13.20770518,.0001929,87.9185,268.4718,96.8717,263.2636,0,U,49311,999,23375,.32676E-3,.146E-5,0
ONEWEB-0386,2021-090AK,2026-07-17T03:43:34.156416,13.20773593,.0001834,87.9186,268.4605,98.6714,261.4627,0,U,49312,999,23377,.21776E-3,.102E-5,0
ONEWEB-0387,2021-090AL,2026-07-16T16:27:13.641120,13.20769987,.0001956,87.9174,268.5722,86.9546,273.1811,0,U,49313,999,23371,.16535E-3,.8E-6,0
ONEWEB-0388,2021-090AM,2026-07-16T19:47:38.515776,13.19726712,.0001854,87.9186,299.0677,99.2951,260.8391,0,U,49314,999,23032,-.10395E-4,.9E-7,0
ONEWEB-0389,2021-132A,2026-07-16T12:14:29.717088,13.17650514,.0001705,87.9145,0.0344,83.0121,277.1205,0,U,50469,999,22194,-.9072E-5,.9E-7,0
ONEWEB-0390,2021-132B,2026-07-16T21:23:39.882048,13.17650408,.0002076,87.9145,359.9596,90.8869,269.2501,0,U,50470,999,22199,.20691E-4,.21E-6,0
ONEWEB-0391,2021-132C,2026-07-16T21:26:05.720064,13.17650030,.0001974,87.9147,359.9691,68.2210,291.9132,0,U,50471,999,22199,-.1888E-4,.6E-7,0
ONEWEB-0392,2021-132D,2026-07-16T11:13:45.117120,13.17651039,.0001747,87.9156,0.0239,82.0976,278.0354,0,U,50472,999,22197,-.24097E-4,.4E-7,0
ONEWEB-0393,2021-132E,2026-07-16T21:34:37.449120,13.17647478,.0001787,87.9144,359.9533,88.6541,271.4795,0,U,50473,999,22202,-.15756E-4,.7E-7,0
ONEWEB-0394,2021-132F,2026-07-16T09:16:28.430688,13.18685120,.0001746,87.9196,329.6361,97.1861,262.9470,0,U,50474,999,22544,.23244E-3,.105E-5,0
ONEWEB-0395,2021-132G,2026-07-16T22:08:48.020064,13.11419417,.0001995,87.8885,15.1450,84.5211,275.6145,0,U,50475,999,21961,-.322E-3,-.101E-5,0
ONEWEB-0396,2021-132H,2026-07-16T21:51:36.309024,13.18686427,.0001738,87.9199,329.5451,96.9203,263.2126,0,U,50476,999,22555,-.48906E-4,-.6E-7,0
ONEWEB-0397,2021-132J,2026-07-16T20:24:11.296800,13.18687031,.0001654,87.9199,329.5569,99.0636,261.0684,0,U,50477,999,22552,.73685E-4,.42E-6,0
ONEWEB-0398,2021-132K,2026-07-16T23:12:17.269920,13.11414946,.0002162,87.8890,15.1291,88.3869,271.7507,0,U,50478,999,21951,-.45525E-3,-.149E-5,0
ONEWEB-0399,2021-132L,2026-07-16T13:43:25.909824,13.11415348,.0001512,87.8893,15.2191,78.0887,282.0411,0,U,50479,999,21945,.9539E-3,.351E-5,0
