[
  {
    "name": "ONEWEB-0369",
    "noradId": "49295",
    "line1": "1 49295U 21090S   26197.82633279 -.00000058  00000+0 -17636-3 0  9996",
    "line2": "2 49295  87.9185 299.0714 0002046 104.7746 255.3613 13.19726384230321"
  },
  {
    "name": "ONEWEB-0370",
    "noradId": "49296",
    "line1": "1 49296U 21090T   26198.17210968  .00000007  00000+0 -15004-4 0  9993",
    "line2": "2 49296  87.9184 268.4654 0002305  93.8862 266.2535 13.20772270233828"
  },
  {
    "name": "ONEWEB-0371",
    "noradId": "49297",
    "line1": "1 49297U 21090U   26198.21331382  .00000097  00000+0  21037-3 0  9993",
    "line2": "2 49297  87.9193 298.9891 0002107 101.7985 258.3384 13.19725862230414"
  },
  {
    "name": "ONEWEB-0372",
    "noradId": "49298",
    "line1": "1 49298U 21090V   26198.16186265  .00000057  00000+0  10838-3 0  9999",
    "line2": "2 49298  87.9183 268.4697 0002114  98.9643 261.1729 13.20769998233795"
  },
  {
    "name": "ONEWEB-0373",
    "noradId": "49299",
    "line1": "1 49299U 21090W   26197.73270713 -.00000075  00000+0 -21712-3 0  9999",
    "line2": "2 49299  87.9185 268.5544 0002080  96.0097 264.1274 13.20772869234929"
  },
  {
    "name": "ONEWEB-0374",
    "noradId": "49300",
    "line1": "1 49300U 21090X   26198.18525000 -.00000132  00000+0 -39010-3 0  9998",
    "line2": "2 49300  87.8970 283.7218 0001538  88.3682 271.7624 13.14503274231500"
  },
  {
    "name": "ONEWEB-0375",
    "noradId": "49301",
    "line1": "1 49301U 21090Y   26197.72092574 -.00000051  00000+0 -15744-3 0  9991",
    "line2": "2 49301  87.9187 268.5488 0001634  87.1363 272.9958 13.20772791234428"
  },
  {
    "name": "ONEWEB-0376",
    "noradId": "49302",
    "line1": "1 49302U 21090Z   26198.21172412  .00000084  00000+0  17783-3 0  9996",
    "line2": "2 49302  87.9193 298.9893 0002114 106.2270 253.9095 13.19727249230419"
  },
  {
    "name": "ONEWEB-0377",
    "noradId": "49303",
    "line1": "1 49303U 21090AA  26197.70756863  .00002353  00000+0  57527-2 0  9998",
    "line2": "2 49303  87.9183 268.5539 0002062  93.1783 266.9586 13.20792686234416"
  },
  {
    "name": "ONEWEB-0378",
    "noradId": "49304",
    "line1": "1 49304U 21090AB  26198.18235377  .00000015  00000+0  51333-5 0  9999",
    "line2": "2 49304  87.9180 268.4626 0001910  97.7553 262.3797 13.20772072233742"
  },
  {
    "name": "ONEWEB-0379",
    "noradId": "49305",
    "line1": "1 49305U 21090AC  26198.18050006 -.00000099  00000+0 -30084-3 0  9996",
    "line2": "2 49305  87.8968 283.7326 0001913  98.3280 261.8067 13.14502660231503"
  },
  {
    "name": "ONEWEB-0380",
    "noradId": "49306",
    "line1": "1 49306U 21090AD  26197.82949285 -.00000027  00000+0 -10000-3 0  9990",
    "line2": "2 49306  87.9186 299.0688 0001984  95.1079 265.0280 13.19726611230339"
  },
  {
    "name": "ONEWEB-0381",
    "noradId": "49307",
    "line1": "1 49307U 21090AE  26197.70408227 -.00000011  00000+0 -60152-4 0  9991",
    "line2": "2 49307  87.9184 268.5590 0001838  93.9457 266.1886 13.20770195233723"
  },
  {
    "name": "ONEWEB-0382",
    "noradId": "49308",
    "line1": "1 49308U 21090AF  26198.14517750  .00000090  00000+0  18849-3 0  9993",
    "line2": "2 49308  87.9184 268.4650 0001799  97.0834 263.0504 13.20772156233777"
  },
  {
    "name": "ONEWEB-0383",
    "noradId": "49309",
    "line1": "1 49309U 21090AG  26198.17415698  .00000014  00000+0  35537-5 0  9996",
    "line2": "2 49309  87.8974 283.7260 0001885 102.1366 257.9975 13.14503054231533"
  },
  {
    "name": "ONEWEB-0384",
    "noradId": "49310",
    "line1": "1 49310U 21090AH  26198.13286693  .00000118  00000+0  25934-3 0  9998",
    "line2": "2 49310  87.9185 268.5115 0001614 100.2252 259.9064 13.20814920233787"
  },
  {
    "name": "ONEWEB-0385",
    "noradId": "49311",
    "line1": "1 49311U 21090AJ  26198.13843294  .00000146  00000+0  32676-3 0  9997",
    "line2": "2 49311  87.9185 268.4718 0001929  96.8717 263.2636 13.20770518233755"
  },
  {
    "name": "ONEWEB-0386",
    "noradId": "49312",
    "line1": "1 49312U 21090AK  26198.15525644  .00000102  00000+0  21776-3 0  9997",
    "line2": "2 49312  87.9186 268.4605 0001834  98.6714 261.4627 13.20773593233772"
  },
  {
    "name": "ONEWEB-0387",
    "noradId": "49313",
    "line1": "1 49313U 21090AL  26197.68557455  .00000080  00000+0  16535-3 0  9992",
    "line2": "2 49313  87.9174 268.5722 0001956  86.9546 273.1811 13.20769987233710"
  },
  {
    "name": "ONEWEB-0388",
    "noradId": "49314",
    "line1": "1 49314U 21090AM  26197.82475134  .00000009  00000+0 -10395-4 0  9993",
    "line2": "2 49314  87.9186 299.0677 0001854  99.2951 260.8391 13.19726712230323"
  },
  {
    "name": "ONEWEB-0389",
    "noradId": "50469",
    "line1": "1 50469U 21132A   26197.51006617  .00000009  00000+0 -90720-5 0  9996",
    "line2": "2 50469  87.9145   0.0344 0001705  83.0121 277.1205 13.17650514221944"
  },
  {
    "name": "ONEWEB-0390",
    "noradId": "50470",
    "line1": "1 50470U 21132B   26197.89143382  .00000021  00000+0  20691-4 0  9992",
    "line2": "2 50470  87.9145 359.9596 0002076  90.8869 269.2501 13.17650408221996"
  },
  {
    "name": "ONEWEB-0391",
    "noradId": "50471",
    "line1": "1 50471U 21132C   26197.89312176  .00000006  00000+0 -18880-4 0  9993",
    "line2": "2 50471  87.9147 359.9691 0001974  68.2210 291.9132 13.17650030221993"
  },
  {
    "name": "ONEWEB-0392",
    "noradId": "50472",
    "line1": "1 50472U 21132D   26197.46788330  .00000004  00000+0 -24097-4 0  9991",
    "line2": "2 50472  87.9156   0.0239 0001747  82.0976 278.0354 13.17651039221977"
  },
  {
    "name": "ONEWEB-0393",
    "noradId": "50473",
    "line1": "1 50473U 21132E   26197.89904455  .00000007  00000+0 -15756-4 0  9992",
    "line2": "2 50473  87.9144 359.9533 0001787  88.6541 271.4795 13.17647478222027"
  },
  {
    "name": "ONEWEB-0394",
    "noradId": "50474",
    "line1": "1 50474U 21132F   26197.38644017  .00000105  00000+0  23244-3 0  9990",
    "line2": "2 50474  87.9196 329.6361 0001746  97.1861 262.9470 13.18685120225444"
  },
  {
    "name": "ONEWEB-0395",
    "noradId": "50475",
    "line1": "1 50475U 21132G   26197.92277801 -.00000101  00000+0 -32200-3 0  9994",
    "line2": "2 50475  87.8885  15.1450 0001995  84.5211 275.6145 13.11419417219619"
  },
  {
    "name": "ONEWEB-0396",
    "noradId": "50476",
    "line1": "1 50476U 21132H   26197.91083691 -.00000006  00000+0 -48906-4 0  9991",
    "line2": "2 50476  87.9199 329.5451 0001738  96.9203 263.2126 13.18686427225551"
  },
  {
    "name": "ONEWEB-0397",
    "noradId": "50477",
    "line1": "1 50477U 21132J   26197.85013075  .00000042  00000+0  73685-4 0  9994",
    "line2": "2 50477  87.9199 329.5569 0001654  99.0636 261.0684 13.18687031225527"
  },
  {
    "name": "ONEWEB-0398",
    "noradId": "50478",
    "line1": "1 50478U 21132K   26197.96686655 -.00000149  00000+0 -45525-3 0  9998",
    "line2": "2 50478  87.8890  15.1291 0002162  88.3869 271.7507 13.11414946219519"
  },
  {
    "name": "ONEWEB-0399",
    "noradId": "50479",
    "line1": "1 50479U 21132L   26197.57182766  .00000351  00000+0  95390-3 0  9998",
    "line2": "2 50479  87.8893  15.2191 0001512  78.0887 282.0411 13.11415348219456"
  }
]